[{"OBJECT_NAME":"GHGSAT-C5","OBJECT_ID":"2022-057N","EPOCH":"2026-03-09T21:50:12.501024","MEAN_MOTION":15.32921902,"ECCENTRICITY":0.00082696,"INCLINATION":97.6522,"RA_OF_ASC_NODE":212.4963,"ARG_OF_PERICENTER":109.8004,"MEAN_ANOMALY":250.413,"EPHEMERIS_TYPE":0,"CLASSIFICATION_TYPE":"U","NORAD_CAT_ID":52744,"ELEMENT_SET_NO":999,"REV_AT_EPOCH":21032,"BSTAR":0.00029214604,"MEAN_MOTION_DOT":9.218e-5,"MEAN_MOTION_DDOT":0},{"OBJECT_NAME":"STARLINK-33799","OBJECT_ID":"2025-069Q","EPOCH":"2026-03-09T12:17:10.496256","MEAN_MOTION":15.30197189,"ECCENTRICITY":0.00011176,"INCLINATION":53.1584,"RA_OF_ASC_NODE":143.5783,"ARG_OF_PERICENTER":80.192,"MEAN_ANOMALY":279.9207,"EPHEMERIS_TYPE":0,"CLASSIFICATION_TYPE":"U","NORAD_CAT_ID":63447,"ELEMENT_SET_NO":999,"REV_AT_EPOCH":5326,"BSTAR":0.00065332248,"MEAN_MOTION_DOT":0.00019038,"MEAN_MOTION_DDOT":0}]
